{"type": "FeatureCollection", "features": [ {"type": "Feature", "properties": {"norad_id": 66908, "name": "1998-067XU", "group": "last-30-days", "lat": 5.654073873535659, "lon": 130.9430268090696, "alt_km": 412.600380003214, "timestamp": "2025-12-15T22:44:27.662585+00:00", "meta": {"OBJECT_NAME": "1998-067XU", "OBJECT_ID": "1998-067XU", "EPOCH": "2025-12-15T02:37:08.426784", "MEAN_MOTION": 15.51862591, "ECCENTRICITY": 0.00042185, "INCLINATION": 51.6293, "RA_OF_ASC_NODE": 130.6123, "ARG_OF_PERICENTER": 240.3757, "MEAN_ANOMALY": 119.6813, "EPHEMERIS_TYPE": 0, "CLASSIFICATION_TYPE": "U", "NORAD_CAT_ID": 66908, "ELEMENT_SET_NO": 999, "REV_AT_EPOCH": 198, "BSTAR": 0.00082604654, "MEAN_MOTION_DOT": 0.00050243, "MEAN_MOTION_DDOT": 0}, "tle": {"line1": "1 66908U 98067XU  25349.10912531  .00050243  00000+0  82605-3 0  9991", "line2": "2 66908  51.6293 130.6123 0004218 240.3757 119.6813 15.51862591  1986"}}, "geometry": {"type": "Point", "coordinates": [130.9430268090696, 5.654073873535659]}}, {"type": "Feature", "properties": {"norad_id": 66909, "name": "SILVERSAT", "group": "last-30-days", "lat": 8.266196591035701, "lon": 133.04570060559917, "alt_km": 412.00894478411465, "timestamp": "2025-12-15T22:44:27.662595+00:00", "meta": {"OBJECT_NAME": "SILVERSAT", "OBJECT_ID": "1998-067XV", "EPOCH": "2025-12-14T21:58:11.659008", "MEAN_MOTION": 15.51959159, "ECCENTRICITY": 0.00041685, "INCLINATION": 51.6297, "RA_OF_ASC_NODE": 131.568, "ARG_OF_PERICENTER": 239.8452, "MEAN_ANOMALY": 120.2125, "EPHEMERIS_TYPE": 0, "CLASSIFICATION_TYPE": "U", "NORAD_CAT_ID": 66909, "ELEMENT_SET_NO": 999, "REV_AT_EPOCH": 195, "BSTAR": 0.00078463431, "MEAN_MOTION_DOT": 0.00047853, "MEAN_MOTION_DDOT": 0}, "tle": {"line1": "1 66909U 98067XV  25348.91541272  .00047853  00000+0  78463-3 0  9990", "line2": "2 66909  51.6297 131.5680 0004168 239.8452 120.2125 15.51959159  1956"}}, "geometry": {"type": "Point", "coordinates": [133.04570060559917, 8.266196591035701]}}, {"type": "Feature", "properties": {"norad_id": 66910, "name": "1998-067XW", "group": "last-30-days", "lat": 15.596992496752982, "lon": 139.19533333709617, "alt_km": 411.94123794198003, "timestamp": "2025-12-15T22:44:27.662605+00:00", "meta": {"OBJECT_NAME": "1998-067XW", "OBJECT_ID": "1998-067XW", "EPOCH": "2025-12-15T02:33:59.321376", "MEAN_MOTION": 15.52065863, "ECCENTRICITY": 0.00048103, "INCLINATION": 51.6293, "RA_OF_ASC_NODE": 130.5977, "ARG_OF_PERICENTER": 220.6145, "MEAN_ANOMALY": 139.4486, "EPHEMERIS_TYPE": 0, "CLASSIFICATION_TYPE": "U", "NORAD_CAT_ID": 66910, "ELEMENT_SET_NO": 999, "REV_AT_EPOCH": 198, "BSTAR": 0.00077673091, "MEAN_MOTION_DOT": 0.00047552, "MEAN_MOTION_DDOT": 0}, "tle": {"line1": "1 66910U 98067XW  25349.10693659  .00047552  00000+0  77673-3 0  9999", "line2": "2 66910  51.6293 130.5977 0004810 220.6145 139.4486 15.52065863  1989"}}, "geometry": {"type": "Point", "coordinates": [139.19533333709617, 15.596992496752982]}}, {"type": "Feature", "properties": {"norad_id": 66911, "name": "1998-067XX", "group": "last-30-days", "lat": 21.197503819290844, "lon": 144.29726795670604, "alt_km": 410.0081157955028, "timestamp": "2025-12-15T22:44:27.662617+00:00", "meta": {"OBJECT_NAME": "1998-067XX", "OBJECT_ID": "1998-067XX", "EPOCH": "2025-12-15T02:32:19.891392", "MEAN_MOTION": 15.5237976, "ECCENTRICITY": 0.00045157, "INCLINATION": 51.6294, "RA_OF_ASC_NODE": 130.59, "ARG_OF_PERICENTER": 223.2403, "MEAN_ANOMALY": 136.8232, "EPHEMERIS_TYPE": 0, "CLASSIFICATION_TYPE": "U", "NORAD_CAT_ID": 66911, "ELEMENT_SET_NO": 999, "REV_AT_EPOCH": 197, "BSTAR": 0.00090895834, "MEAN_MOTION_DOT": 0.00056424, "MEAN_MOTION_DDOT": 0}, "tle": {"line1": "1 66911U 98067XX  25349.10578578  .00056424  00000+0  90896-3 0  9992", "line2": "2 66911  51.6294 130.5900 0004515 223.2403 136.8232 15.52379760  1978"}}, "geometry": {"type": "Point", "coordinates": [144.29726795670604, 21.197503819290844]}}, {"type": "Feature", "properties": {"norad_id": 66912, "name": "1998-067XY", "group": "last-30-days", "lat": -4.063011293213866, "lon": 123.24361696684792, "alt_km": 414.96779399636307, "timestamp": "2025-12-15T22:44:27.662630+00:00", "meta": {"OBJECT_NAME": "1998-067XY", "OBJECT_ID": "1998-067XY", "EPOCH": "2025-12-15T02:39:57.579840", "MEAN_MOTION": 15.51387757, "ECCENTRICITY": 0.00042755, "INCLINATION": 51.63, "RA_OF_ASC_NODE": 130.6254, "ARG_OF_PERICENTER": 236.764, "MEAN_ANOMALY": 123.294, "EPHEMERIS_TYPE": 0, "CLASSIFICATION_TYPE": "U", "NORAD_CAT_ID": 66912, "ELEMENT_SET_NO": 999, "REV_AT_EPOCH": 197, "BSTAR": 0.00062299922, "MEAN_MOTION_DOT": 0.00037074, "MEAN_MOTION_DDOT": 0}, "tle": {"line1": "1 66912U 98067XY  25349.11108310  .00037074  00000+0  62300-3 0  9996", "line2": "2 66912  51.6300 130.6254 0004275 236.7640 123.2940 15.51387757  1975"}}, "geometry": {"type": "Point", "coordinates": [123.24361696684792, -4.063011293213866]}}, {"type": "Feature", "properties": {"norad_id": 66913, "name": "2025-284A", "group": "last-30-days", "lat": -47.807331200934335, "lon": 114.94180919221634, "alt_km": 519.3935799545125, "timestamp": "2025-12-15T22:44:27.662640+00:00", "meta": {"OBJECT_NAME": "2025-284A", "OBJECT_ID": "2025-284A", "EPOCH": "2025-12-15T07:08:46.902048", "MEAN_MOTION": 15.19018708, "ECCENTRICITY": 0.00119938, "INCLINATION": 80.4038, "RA_OF_ASC_NODE": 126.522, "ARG_OF_PERICENTER": 195.987, "MEAN_ANOMALY": 164.0981, "EPHEMERIS_TYPE": 0, "CLASSIFICATION_TYPE": "U", "NORAD_CAT_ID": 66913, "ELEMENT_SET_NO": 999, "REV_AT_EPOCH": 151, "BSTAR": 0.00035654166, "MEAN_MOTION_DOT": 7.498e-05, "MEAN_MOTION_DDOT": 0}, "tle": {"line1": "1 66913U 25284A   25349.29776507  .00007498  00000+0  35654-3 0  9995", "line2": "2 66913  80.4038 126.5220 0011993 195.9870 164.0981 15.19018708  1516"}}, "geometry": {"type": "Point", "coordinates": [114.94180919221634, -47.807331200934335]}}, {"type": "Feature", "properties": {"norad_id": 66914, "name": "2025-284B", "group": "last-30-days", "lat": -46.32174012982401, "lon": 115.49533064846767, "alt_km": 514.366564074, "timestamp": "2025-12-15T22:44:27.662653+00:00", "meta": {"OBJECT_NAME": "2025-284B", "OBJECT_ID": "2025-284B", "EPOCH": "2025-12-15T08:43:11.128800", "MEAN_MOTION": 15.18970107, "ECCENTRICITY": 0.00082486, "INCLINATION": 80.4046, "RA_OF_ASC_NODE": 126.4404, "ARG_OF_PERICENTER": 238.2053, "MEAN_ANOMALY": 121.8371, "EPHEMERIS_TYPE": 0, "CLASSIFICATION_TYPE": "U", "NORAD_CAT_ID": 66914, "ELEMENT_SET_NO": 999, "REV_AT_EPOCH": 152, "BSTAR": 0.0003463978, "MEAN_MOTION_DOT": 7.267e-05, "MEAN_MOTION_DDOT": 0}, "tle": {"line1": "1 66914U 25284B   25349.36332325  .00007267  00000+0  34640-3 0  9998", "line2": "2 66914  80.4046 126.4404 0008248 238.2053 121.8371 15.18970107  1526"}}, "geometry": {"type": "Point", "coordinates": [115.49533064846767, -46.32174012982401]}}, {"type": "Feature", "properties": {"norad_id": 66915, "name": "HULIANWANG DIGUI-105", "group": "last-30-days", "lat": -21.52405415148337, "lon": -56.45596391528506, "alt_km": 883.2976013854413, "timestamp": "2025-12-15T22:44:27.662663+00:00", "meta": {"OBJECT_NAME": "HULIANWANG DIGUI-105", "OBJECT_ID": "2025-285A", "EPOCH": "2025-12-15T08:04:55.176672", "MEAN_MOTION": 14.03716069, "ECCENTRICITY": 0.00079534, "INCLINATION": 50.0042, "RA_OF_ASC_NODE": 106.6968, "ARG_OF_PERICENTER": 291.3825, "MEAN_ANOMALY": 68.623, "EPHEMERIS_TYPE": 0, "CLASSIFICATION_TYPE": "U", "NORAD_CAT_ID": 66915, "ELEMENT_SET_NO": 999, "REV_AT_EPOCH": 127, "BSTAR": 0.00023770741, "MEAN_MOTION_DOT": 2.25e-06, "MEAN_MOTION_DDOT": 0}, "tle": {"line1": "1 66915U 25285A   25349.33674973  .00000225  00000+0  23771-3 0  9995", "line2": "2 66915  50.0042 106.6968 0007953 291.3825  68.6230 14.03716069  1272"}}, "geometry": {"type": "Point", "coordinates": [-56.45596391528506, -21.52405415148337]}}, {"type": "Feature", "properties": {"norad_id": 66916, "name": "HULIANWANG DIGUI-106", "group": "last-30-days", "lat": -32.169649980545714, "lon": -43.94697714612474, "alt_km": 881.2917587622342, "timestamp": "2025-12-15T22:44:27.662675+00:00", "meta": {"OBJECT_NAME": "HULIANWANG DIGUI-106", "OBJECT_ID": "2025-285B", "EPOCH": "2025-12-15T08:00:44.472384", "MEAN_MOTION": 14.04044179, "ECCENTRICITY": 0.00067071, "INCLINATION": 50.0054, "RA_OF_ASC_NODE": 106.6825, "ARG_OF_PERICENTER": 285.3091, "MEAN_ANOMALY": 74.7072, "EPHEMERIS_TYPE": 0, "CLASSIFICATION_TYPE": "U", "NORAD_CAT_ID": 66916, "ELEMENT_SET_NO": 999, "REV_AT_EPOCH": 127, "BSTAR": 1.2214937e-05, "MEAN_MOTION_DOT": -1.32e-06, "MEAN_MOTION_DDOT": 0}, "tle": {"line1": "1 66916U 25285B   25349.33384806 -.00000132  00000+0  12215-4 0  9999", "line2": "2 66916  50.0054 106.6825 0006707 285.3091  74.7072 14.04044179  1271"}}, "geometry": {"type": "Point", "coordinates": [-43.94697714612474, -32.169649980545714]}}, {"type": "Feature", "properties": {"norad_id": 66917, "name": "HULIANWANG DIGUI-107", "group": "last-30-days", "lat": -38.604962267222355, "lon": -33.75016921711277, "alt_km": 877.4854130180056, "timestamp": "2025-12-15T22:44:27.662685+00:00", "meta": {"OBJECT_NAME": "HULIANWANG DIGUI-107", "OBJECT_ID": "2025-285C", "EPOCH": "2025-12-15T07:58:25.154976", "MEAN_MOTION": 14.05118183, "ECCENTRICITY": 0.00074248, "INCLINATION": 50.0019, "RA_OF_ASC_NODE": 106.669, "ARG_OF_PERICENTER": 292.9622, "MEAN_ANOMALY": 67.0499, "EPHEMERIS_TYPE": 0, "CLASSIFICATION_TYPE": "U", "NORAD_CAT_ID": 66917, "ELEMENT_SET_NO": 999, "REV_AT_EPOCH": 127, "BSTAR": 0.0001441143, "MEAN_MOTION_DOT": 8.2e-07, "MEAN_MOTION_DDOT": 0}, "tle": {"line1": "1 66917U 25285C   25349.33223559  .00000082  00000+0  14411-3 0  9999", "line2": "2 66917  50.0019 106.6690 0007424 292.9622  67.0499 14.05118183  1270"}}, "geometry": {"type": "Point", "coordinates": [-33.75016921711277, -38.604962267222355]}}]}